CCSDS_OMM_VERS = 2.0
CREATION_DATE  = 
ORIGINATOR     = 

OBJECT_NAME    = COSMOS 2242
OBJECT_ID      = 1993-024A
CENTER_NAME    = EARTH
REF_FRAME      = TEME
TIME_SYSTEM    = UTC
MEAN_ELEMENT_THEORY = SGP/SGP4

EPOCH          = 2026-03-09T20:04:34.198752
MEAN_MOTION    = 14.96549635
ECCENTRICITY   = .0015182
INCLINATION    = 82.5156
RA_OF_ASC_NODE = 266.5760
ARG_OF_PERICENTER = 308.3404
MEAN_ANOMALY   = 51.6453

EPHEMERIS_TYPE = 0
CLASSIFICATION_TYPE = U
NORAD_CAT_ID   = 22626
ELEMENT_SET_NO = 999
REV_AT_EPOCH   = 78041
BSTAR          = .21844E-3
MEAN_MOTION_DOT = .2514E-4
MEAN_MOTION_DDOT = 0

CCSDS_OMM_VERS = 2.0
CREATION_DATE  = 
ORIGINATOR     = 

OBJECT_NAME    = SL-16 R/B
OBJECT_ID      = 1993-059B
CENTER_NAME    = EARTH
REF_FRAME      = TEME
TIME_SYSTEM    = UTC
MEAN_ELEMENT_THEORY = SGP/SGP4

EPOCH          = 2026-03-09T19:54:55.488096
MEAN_MOTION    = 14.17231639
ECCENTRICITY   = .0018542
INCLINATION    = 70.9927
RA_OF_ASC_NODE = 10.8302
ARG_OF_PERICENTER = 216.3546
MEAN_ANOMALY   = 143.6319

EPHEMERIS_TYPE = 0
CLASSIFICATION_TYPE = U
NORAD_CAT_ID   = 22803
ELEMENT_SET_NO = 999
REV_AT_EPOCH   = 67955
BSTAR          = -.50913E-4
MEAN_MOTION_DOT = -.151E-5
MEAN_MOTION_DDOT = 0

CCSDS_OMM_VERS = 2.0
CREATION_DATE  = 
ORIGINATOR     = 

OBJECT_NAME    = ARIANE 40 R/B
OBJECT_ID      = 1993-061H
CENTER_NAME    = EARTH
REF_FRAME      = TEME
TIME_SYSTEM    = UTC
MEAN_ELEMENT_THEORY = SGP/SGP4

EPOCH          = 2026-03-09T18:26:30.160896
MEAN_MOTION    = 14.32860991
ECCENTRICITY   = .0009538
INCLINATION    = 98.4915
RA_OF_ASC_NODE = 137.6545
ARG_OF_PERICENTER = 284.8597
MEAN_ANOMALY   = 75.1531

EPHEMERIS_TYPE = 0
CLASSIFICATION_TYPE = U
NORAD_CAT_ID   = 22830
ELEMENT_SET_NO = 999
REV_AT_EPOCH   = 69411
BSTAR          = .10374E-3
MEAN_MOTION_DOT = .24E-5
MEAN_MOTION_DDOT = 0

CCSDS_OMM_VERS = 2.0
CREATION_DATE  = 
ORIGINATOR     = 

OBJECT_NAME    = COSMOS 2278
OBJECT_ID      = 1994-023A
CENTER_NAME    = EARTH
REF_FRAME      = TEME
TIME_SYSTEM    = UTC
MEAN_ELEMENT_THEORY = SGP/SGP4

EPOCH          = 2026-03-09T17:44:23.372160
MEAN_MOTION    = 14.14378967
ECCENTRICITY   = .0008033
INCLINATION    = 71.0552
RA_OF_ASC_NODE = 174.9938
ARG_OF_PERICENTER = 13.0676
MEAN_ANOMALY   = 347.0653

EPHEMERIS_TYPE = 0
CLASSIFICATION_TYPE = U
NORAD_CAT_ID   = 23087
ELEMENT_SET_NO = 999
REV_AT_EPOCH   = 64481
BSTAR          = .87573E-4
MEAN_MOTION_DOT = .12E-5
MEAN_MOTION_DDOT = 0

CCSDS_OMM_VERS = 2.0
CREATION_DATE  = 
ORIGINATOR     = 

OBJECT_NAME    = SL-16 R/B
OBJECT_ID      = 1994-023B
CENTER_NAME    = EARTH
REF_FRAME      = TEME
TIME_SYSTEM    = UTC
MEAN_ELEMENT_THEORY = SGP/SGP4

EPOCH          = 2026-03-09T10:22:16.806144
MEAN_MOTION    = 14.15011960
ECCENTRICITY   = .00057353
INCLINATION    = 70.9985
RA_OF_ASC_NODE = 71.4279
ARG_OF_PERICENTER = 286.1076
MEAN_ANOMALY   = 73.9415

EPHEMERIS_TYPE = 0
CLASSIFICATION_TYPE = U
NORAD_CAT_ID   = 23088
ELEMENT_SET_NO = 999
REV_AT_EPOCH   = 64605
BSTAR          = -.99429243E-4
MEAN_MOTION_DOT = -.24E-5
MEAN_MOTION_DDOT = 0

CCSDS_OMM_VERS = 2.0
CREATION_DATE  = 
ORIGINATOR     = 

OBJECT_NAME    = SL-16 R/B
OBJECT_ID      = 1994-074B
CENTER_NAME    = EARTH
REF_FRAME      = TEME
TIME_SYSTEM    = UTC
MEAN_ELEMENT_THEORY = SGP/SGP4

EPOCH          = 2026-03-09T16:02:30.812352
MEAN_MOTION    = 14.79407993
ECCENTRICITY   = .0005769
INCLINATION    = 97.7110
RA_OF_ASC_NODE = 99.4870
ARG_OF_PERICENTER = 210.5144
MEAN_ANOMALY   = 265.2991

EPHEMERIS_TYPE = 0
CLASSIFICATION_TYPE = U
NORAD_CAT_ID   = 23343
ELEMENT_SET_NO = 999
REV_AT_EPOCH   = 68724
BSTAR          = .88074E-4
MEAN_MOTION_DOT = .608E-5
MEAN_MOTION_DDOT = 0

CCSDS_OMM_VERS = 2.0
CREATION_DATE  = 
ORIGINATOR     = 

OBJECT_NAME    = SL-16 R/B
OBJECT_ID      = 1994-077B
CENTER_NAME    = EARTH
REF_FRAME      = TEME
TIME_SYSTEM    = UTC
MEAN_ELEMENT_THEORY = SGP/SGP4

EPOCH          = 2026-03-09T20:06:30.647808
MEAN_MOTION    = 14.15561246
ECCENTRICITY   = .0003088
INCLINATION    = 70.9853
RA_OF_ASC_NODE = 352.1773
ARG_OF_PERICENTER = 211.9107
MEAN_ANOMALY   = 148.1829

EPHEMERIS_TYPE = 0
CLASSIFICATION_TYPE = U
NORAD_CAT_ID   = 23405
ELEMENT_SET_NO = 999
REV_AT_EPOCH   = 61625
BSTAR          = .12085E-4
MEAN_MOTION_DOT = -.24E-6
MEAN_MOTION_DDOT = 0

CCSDS_OMM_VERS = 2.0
CREATION_DATE  = 
ORIGINATOR     = 

OBJECT_NAME    = ARIANE 40+ R/B
OBJECT_ID      = 1995-021B
CENTER_NAME    = EARTH
REF_FRAME      = TEME
TIME_SYSTEM    = UTC
MEAN_ELEMENT_THEORY = SGP/SGP4

EPOCH          = 2026-03-09T19:50:08.258208
MEAN_MOTION    = 14.39772557
ECCENTRICITY   = .000765
INCLINATION    = 98.4496
RA_OF_ASC_NODE = 140.3073
ARG_OF_PERICENTER = 136.0582
MEAN_ANOMALY   = 335.1619

EPHEMERIS_TYPE = 0
CLASSIFICATION_TYPE = U
NORAD_CAT_ID   = 23561
ELEMENT_SET_NO = 999
REV_AT_EPOCH   = 61926
BSTAR          = .12902E-3
MEAN_MOTION_DOT = .361E-5
MEAN_MOTION_DDOT = 0

CCSDS_OMM_VERS = 2.0
CREATION_DATE  = 
ORIGINATOR     = 

OBJECT_NAME    = SL-16 R/B
OBJECT_ID      = 1995-058B
CENTER_NAME    = EARTH
REF_FRAME      = TEME
TIME_SYSTEM    = UTC
MEAN_ELEMENT_THEORY = SGP/SGP4

EPOCH          = 2026-03-09T16:53:04.660224
MEAN_MOTION    = 14.15495248
ECCENTRICITY   = .0010793
INCLINATION    = 71.0220
RA_OF_ASC_NODE = 180.2258
ARG_OF_PERICENTER = 125.7746
MEAN_ANOMALY   = 234.4382

EPHEMERIS_TYPE = 0
CLASSIFICATION_TYPE = U
NORAD_CAT_ID   = 23705
ELEMENT_SET_NO = 999
REV_AT_EPOCH   = 56785
BSTAR          = .18469E-3
MEAN_MOTION_DOT = .314E-5
MEAN_MOTION_DDOT = 0

CCSDS_OMM_VERS = 2.0
CREATION_DATE  = 
ORIGINATOR     = 

OBJECT_NAME    = SL-16 R/B
OBJECT_ID      = 1996-051B
CENTER_NAME    = EARTH
REF_FRAME      = TEME
TIME_SYSTEM    = UTC
MEAN_ELEMENT_THEORY = SGP/SGP4

EPOCH          = 2026-03-09T17:47:08.854080
MEAN_MOTION    = 14.12415709
ECCENTRICITY   = .0015055
INCLINATION    = 70.7604
RA_OF_ASC_NODE = 175.1301
ARG_OF_PERICENTER = 147.9840
MEAN_ANOMALY   = 212.2198

EPHEMERIS_TYPE = 0
CLASSIFICATION_TYPE = U
NORAD_CAT_ID   = 24298
ELEMENT_SET_NO = 999
REV_AT_EPOCH   = 52165
BSTAR          = .87952E-4
MEAN_MOTION_DOT = .113E-5
MEAN_MOTION_DDOT = 0

CCSDS_OMM_VERS = 2.0
CREATION_DATE  = 
ORIGINATOR     = 

OBJECT_NAME    = ORBVIEW 2 (SEASTAR)
OBJECT_ID      = 1997-037A
CENTER_NAME    = EARTH
REF_FRAME      = TEME
TIME_SYSTEM    = UTC
MEAN_ELEMENT_THEORY = SGP/SGP4

EPOCH          = 2026-03-09T10:01:45.865344
MEAN_MOTION    = 14.35494733
ECCENTRICITY   = .00031049
INCLINATION    = 98.8567
RA_OF_ASC_NODE = 232.7225
ARG_OF_PERICENTER = 72.6600
MEAN_ANOMALY   = 287.4924

EPHEMERIS_TYPE = 0
CLASSIFICATION_TYPE = U
NORAD_CAT_ID   = 24883
ELEMENT_SET_NO = 999
REV_AT_EPOCH   = 50843
BSTAR          = .15259071E-3
MEAN_MOTION_DOT = .392E-5
MEAN_MOTION_DDOT = 0

CCSDS_OMM_VERS = 2.0
CREATION_DATE  = 
ORIGINATOR     = 

OBJECT_NAME    = SL-16 R/B
OBJECT_ID      = 1998-043G
CENTER_NAME    = EARTH
REF_FRAME      = TEME
TIME_SYSTEM    = UTC
MEAN_ELEMENT_THEORY = SGP/SGP4

EPOCH          = 2026-03-09T20:55:34.364928
MEAN_MOTION    = 14.26049928
ECCENTRICITY   = .001021
INCLINATION    = 98.8253
RA_OF_ASC_NODE = 22.2366
ARG_OF_PERICENTER = 19.8771
MEAN_ANOMALY   = 340.2805

EPHEMERIS_TYPE = 0
CLASSIFICATION_TYPE = U
NORAD_CAT_ID   = 25400
ELEMENT_SET_NO = 999
REV_AT_EPOCH   = 43901
BSTAR          = .65699E-4
MEAN_MOTION_DOT = .112E-5
MEAN_MOTION_DDOT = 0

